[{"OBJECT_NAME":"STARLINK-30369","OBJECT_ID":"2023-134L","EPOCH":"2026-03-09T09:33:22.683744","MEAN_MOTION":15.27583915,"ECCENTRICITY":5.237e-5,"INCLINATION":42.9965,"RA_OF_ASC_NODE":195.9954,"ARG_OF_PERICENTER":285.4922,"MEAN_ANOMALY":74.5872,"EPHEMERIS_TYPE":0,"CLASSIFICATION_TYPE":"U","NORAD_CAT_ID":57781,"ELEMENT_SET_NO":999,"REV_AT_EPOCH":13946,"BSTAR":1.0491888e-5,"MEAN_MOTION_DOT":2.7e-7,"MEAN_MOTION_DDOT":0},{"OBJECT_NAME":"FENGYUN 1C DEB","OBJECT_ID":"1999-025CCU","EPOCH":"2026-03-09T04:16:51.250080","MEAN_MOTION":14.7380712,"ECCENTRICITY":0.02770831,"INCLINATION":98.1363,"RA_OF_ASC_NODE":145.1449,"ARG_OF_PERICENTER":173.2574,"MEAN_ANOMALY":217.8544,"EPHEMERIS_TYPE":0,"CLASSIFICATION_TYPE":"U","NORAD_CAT_ID":31686,"ELEMENT_SET_NO":999,"REV_AT_EPOCH":99091,"BSTAR":0.001175879,"MEAN_MOTION_DOT":0.00014291,"MEAN_MOTION_DDOT":0}]
